start=new Date('2023-05-23T00:00:00.000Z').valueOf();
sats=[{"EPOCH":"2023-05-22T12:24:31.289184","REV_AT_EPOCH":"14261","FILE":"3914693","TIME_SYSTEM":"UTC","BSTAR":"0.00141040000000","TLE_LINE2":"2 46791  53.0530 230.3275 0001378 101.8981 258.2162 15.06330112142616","TLE_LINE1":"1 46791U 20074BE  23142.51702881  .00020749  00000-0  14104-2 0  9998","NORAD_CAT_ID":"46791","INCLINATION":"53.0530","APOAPSIS":"548.382","DECAY_DATE":null,"LAUNCH_DATE":"2020-10-24","ELEMENT_SET_NO":"999","GP_ID":"232322423","MEAN_ANOMALY":"258.2162","RCS_SIZE":"LARGE","OBJECT_NAME":"STARLINK-1933","MEAN_MOTION_DDOT":"0.0000000000000","ARG_OF_PERICENTER":"101.8981","SITE":"AFETR","CENTER_NAME":"EARTH","PERIAPSIS":"546.473","MEAN_MOTION":"15.06330112","ECCENTRICITY":"0.00013780","EPHEMERIS_TYPE":"0","SEMIMAJOR_AXIS":"6925.563","PERIOD":"95.597","RA_OF_ASC_NODE":"230.3275","OBJECT_ID":"2020-074BE","MEAN_ELEMENT_THEORY":"SGP4","MEAN_MOTION_DOT":"0.00020749","COUNTRY_CODE":"US","CLASSIFICATION_TYPE":"U","OBJECT_TYPE":"PAYLOAD","REF_FRAME":"TEME"},{"EPHEMERIS_TYPE":"0","SEMIMAJOR_AXIS":"6925.429","PERIOD":"95.594","RA_OF_ASC_NODE":"220.5081","OBJECT_ID":"2020-074BF","MEAN_ELEMENT_THEORY":"SGP4","CLASSIFICATION_TYPE":"U","OBJECT_TYPE":"PAYLOAD","COUNTRY_CODE":"US","MEAN_MOTION_DOT":"0.00020645","REF_FRAME":"TEME","GP_ID":"232322166","MEAN_MOTION_DDOT":"0.0000000000000","OBJECT_NAME":"STARLINK-1934","MEAN_ANOMALY":"258.4029","RCS_SIZE":"LARGE","ARG_OF_PERICENTER":"101.7077","SITE":"AFETR","CENTER_NAME":"EARTH","MEAN_MOTION":"15.06373907","PERIAPSIS":"546.571","ECCENTRICITY":"0.00010430","TLE_LINE2":"2 46792  53.0525 220.5081 0001043 101.7077 258.4029 15.06373907142748","TLE_LINE1":"1 46792U 20074BF  23142.47740742  .00020645  00000-0  14018-2 0  9991","INCLINATION":"53.0525","NORAD_CAT_ID":"46792","DECAY_DATE":null,"APOAPSIS":"548.016","LAUNCH_DATE":"2020-10-24","ELEMENT_SET_NO":"999","EPOCH":"2023-05-22T11:27:28.001088","REV_AT_EPOCH":"14274","FILE":"3914693","BSTAR":"0.00140180000000","TIME_SYSTEM":"UTC"},{"INCLINATION":"53.0530","NORAD_CAT_ID":"46793","TLE_LINE2":"2 46793  53.0530 230.3799 0001274  85.8676 274.2459 15.06382528142600","TLE_LINE1":"1 46793U 20074BG  23142.50599504 -.00006333  00000-0 -40685-3 0  9994","DECAY_DATE":null,"APOAPSIS":"548.149","ELEMENT_SET_NO":"999","LAUNCH_DATE":"2020-10-24","EPOCH":"2023-05-22T12:08:37.971456","FILE":"3914693","REV_AT_EPOCH":"14260","BSTAR":"-0.00040685000000","TIME_SYSTEM":"UTC","SEMIMAJOR_AXIS":"6925.402","EPHEMERIS_TYPE":"0","RA_OF_ASC_NODE":"230.3799","OBJECT_ID":"2020-074BG","PERIOD":"95.593","OBJECT_TYPE":"PAYLOAD","CLASSIFICATION_TYPE":"U","COUNTRY_CODE":"US","MEAN_MOTION_DOT":"-0.00006333","MEAN_ELEMENT_THEORY":"SGP4","REF_FRAME":"TEME","OBJECT_NAME":"STARLINK-1941","MEAN_MOTION_DDOT":"0.0000000000000","MEAN_ANOMALY":"274.2459","RCS_SIZE":"LARGE","GP_ID":"232320924","SITE":"AFETR","ARG_OF_PERICENTER":"85.8676","MEAN_MOTION":"15.06382528","PERIAPSIS":"546.385","CENTER_NAME":"EARTH","ECCENTRICITY":"0.00012740"},{"SEMIMAJOR_AXIS":"6925.492","EPHEMERIS_TYPE":"0","RA_OF_ASC_NODE":"229.7516","OBJECT_ID":"2020-074BH","PERIOD":"95.595","MEAN_MOTION_DOT":"0.00027339","COUNTRY_CODE":"US","OBJECT_TYPE":"PAYLOAD","CLASSIFICATION_TYPE":"U","MEAN_ELEMENT_THEORY":"SGP4","REF_FRAME":"TEME","MEAN_ANOMALY":"268.2604","RCS_SIZE":"LARGE","MEAN_MOTION_DDOT":"0.0000000000000","OBJECT_NAME":"STARLINK-1942","GP_ID":"232354938","SITE":"AFETR","ARG_OF_PERICENTER":"91.8512","PERIAPSIS":"546.589","MEAN_MOTION":"15.06353118","CENTER_NAME":"EARTH","ECCENTRICITY":"0.00011090","NORAD_CAT_ID":"46794","INCLINATION":"53.0535","TLE_LINE1":"1 46794U 20074BH  23142.64603513  .00027339  00000-0  18495-2 0  9996","TLE_LINE2":"2 46794  53.0535 229.7516 0001109  91.8512 268.2604 15.06353118142639","APOAPSIS":"548.125","DECAY_DATE":null,"ELEMENT_SET_NO":"999","LAUNCH_DATE":"2020-10-24","EPOCH":"2023-05-22T15:30:17.435232","FILE":"3914964","REV_AT_EPOCH":"14263","TIME_SYSTEM":"UTC","BSTAR":"0.00184950000000"},{"LAUNCH_DATE":"2020-10-24","ELEMENT_SET_NO":"999","APOAPSIS":"548.206","DECAY_DATE":null,"TLE_LINE2":"2 46796  53.0529 220.4562 0001375  86.7508 273.3638 15.06386763142744","TLE_LINE1":"1 46796U 20074BK  23142.48849868  .00007188  00000-0  50115-3 0  9991","NORAD_CAT_ID":"46796","INCLINATION":"53.0529","TIME_SYSTEM":"UTC","BSTAR":"0.00050115000000","REV_AT_EPOCH":"14274","FILE":"3914693","EPOCH":"2023-05-22T11:43:26.285952","REF_FRAME":"TEME","MEAN_ELEMENT_THEORY":"SGP4","COUNTRY_CODE":"US","MEAN_MOTION_DOT":"0.00007188","OBJECT_TYPE":"PAYLOAD","CLASSIFICATION_TYPE":"U","PERIOD":"95.593","RA_OF_ASC_NODE":"220.4562","OBJECT_ID":"2020-074BK","EPHEMERIS_TYPE":"0","SEMIMAJOR_AXIS":"6925.389","ECCENTRICITY":"0.00013750","CENTER_NAME":"EARTH","PERIAPSIS":"546.302","MEAN_MOTION":"15.06386763","ARG_OF_PERICENTER":"86.7508","SITE":"AFETR","GP_ID":"232321923","MEAN_ANOMALY":"273.3638","RCS_SIZE":"LARGE","OBJECT_NAME":"STARLINK-1944","MEAN_MOTION_DDOT":"0.0000000000000"},{"MEAN_ELEMENT_THEORY":"SGP4","MEAN_MOTION_DOT":"0.00002405","COUNTRY_CODE":"US","OBJECT_TYPE":"PAYLOAD","CLASSIFICATION_TYPE":"U","REF_FRAME":"TEME","EPHEMERIS_TYPE":"0","SEMIMAJOR_AXIS":"6925.377","PERIOD":"95.593","OBJECT_ID":"2020-074BM","RA_OF_ASC_NODE":"245.0215","CENTER_NAME":"EARTH","PERIAPSIS":"546.386","MEAN_MOTION":"15.06390821","ECCENTRICITY":"0.00012350","GP_ID":"232322667","MEAN_ANOMALY":"263.1087","RCS_SIZE":"LARGE","MEAN_MOTION_DDOT":"0.0000000000000","OBJECT_NAME":"STARLINK-1948","ARG_OF_PERICENTER":"97.0042","SITE":"AFETR","APOAPSIS":"548.097","DECAY_DATE":null,"LAUNCH_DATE":"2020-10-24","ELEMENT_SET_NO":"999","TLE_LINE2":"2 46798  53.0531 245.0215 0001235  97.0042 263.1087 15.06390821142419","TLE_LINE1":"1 46798U 20074BM  23142.58661341  .00002405  00000-0  18031-3 0  9990","NORAD_CAT_ID":"46798","INCLINATION":"53.0531","TIME_SYSTEM":"UTC","BSTAR":"0.00018031000000","EPOCH":"2023-05-22T14:04:43.398624","REV_AT_EPOCH":"14241","FILE":"3914693"},{"TIME_SYSTEM":"UTC","BSTAR":"0.00130940000000","EPOCH":"2023-05-22T20:56:43.996416","FILE":"3914964","REV_AT_EPOCH":"13782","APOAPSIS":"547.869","DECAY_DATE":null,"ELEMENT_SET_NO":"999","LAUNCH_DATE":"2020-11-25","NORAD_CAT_ID":"47122","INCLINATION":"53.0525","TLE_LINE2":"2 47122  53.0525 208.7357 0000834 100.8955 259.2128 15.06374678137820","TLE_LINE1":"1 47122U 20088A   23142.87273144  .00019262  00000-0  13094-2 0  9991","PERIAPSIS":"546.714","MEAN_MOTION":"15.06374678","CENTER_NAME":"EARTH","ECCENTRICITY":"0.00008340","MEAN_ANOMALY":"259.2128","RCS_SIZE":"LARGE","OBJECT_NAME":"STARLINK-1777","MEAN_MOTION_DDOT":"0.0000000000000","GP_ID":"232355469","SITE":"AFETR","ARG_OF_PERICENTER":"100.8955","COUNTRY_CODE":"US","MEAN_MOTION_DOT":"0.00019262","OBJECT_TYPE":"PAYLOAD","CLASSIFICATION_TYPE":"U","MEAN_ELEMENT_THEORY":"SGP4","REF_FRAME":"TEME","SEMIMAJOR_AXIS":"6925.426","EPHEMERIS_TYPE":"0","OBJECT_ID":"2020-088A","RA_OF_ASC_NODE":"208.7357","PERIOD":"95.594"},{"TIME_SYSTEM":"UTC","BSTAR":"0.00028782000000","EPOCH":"2023-05-22T14:15:22.126176","FILE":"3914771","REV_AT_EPOCH":"13801","APOAPSIS":"548.110","DECAY_DATE":null,"ELEMENT_SET_NO":"999","LAUNCH_DATE":"2020-11-25","NORAD_CAT_ID":"47124","INCLINATION":"53.0534","TLE_LINE2":"2 47124  53.0534 214.9938 0001271  95.9494 264.1640 15.06394829138010","TLE_LINE1":"1 47124U 20088C   23142.59400609  .00004008  00000-0  28782-3 0  9993","PERIAPSIS":"546.349","MEAN_MOTION":"15.06394829","CENTER_NAME":"EARTH","ECCENTRICITY":"0.00012710","RCS_SIZE":"LARGE","MEAN_ANOMALY":"264.1640","OBJECT_NAME":"STARLINK-1785","MEAN_MOTION_DDOT":"0.0000000000000","GP_ID":"232331662","SITE":"AFETR","ARG_OF_PERICENTER":"95.9494","COUNTRY_CODE":"US","MEAN_MOTION_DOT":"0.00004008","CLASSIFICATION_TYPE":"U","OBJECT_TYPE":"PAYLOAD","MEAN_ELEMENT_THEORY":"SGP4","REF_FRAME":"TEME","SEMIMAJOR_AXIS":"6925.364","EPHEMERIS_TYPE":"0","OBJECT_ID":"2020-088C","RA_OF_ASC_NODE":"214.9938","PERIOD":"95.592"},{"MEAN_ELEMENT_THEORY":"SGP4","OBJECT_TYPE":"PAYLOAD","CLASSIFICATION_TYPE":"U","MEAN_MOTION_DOT":"0.00018828","COUNTRY_CODE":"US","REF_FRAME":"TEME","EPHEMERIS_TYPE":"0","SEMIMAJOR_AXIS":"6925.466","PERIOD":"95.595","OBJECT_ID":"2020-088E","RA_OF_ASC_NODE":"210.4057","CENTER_NAME":"EARTH","MEAN_MOTION":"15.06361587","PERIAPSIS":"546.606","ECCENTRICITY":"0.00010470","GP_ID":"232354469","OBJECT_NAME":"STARLINK-1812","MEAN_MOTION_DDOT":"0.0000000000000","MEAN_ANOMALY":"252.5475","RCS_SIZE":"LARGE","ARG_OF_PERICENTER":"107.5629","SITE":"AFETR","DECAY_DATE":null,"APOAPSIS":"548.056","LAUNCH_DATE":"2020-11-25","ELEMENT_SET_NO":"999","TLE_LINE1":"1 47126U 20088E   23142.50044864  .00018828  00000-0  12808-2 0  9999","TLE_LINE2":"2 47126  53.0524 210.4057 0001047 107.5629 252.5475 15.06361587137779","INCLINATION":"53.0524","NORAD_CAT_ID":"47126","BSTAR":"0.00128080000000","TIME_SYSTEM":"UTC","EPOCH":"2023-05-22T12:00:38.762496","REV_AT_EPOCH":"13777","FILE":"3914964"},{"SITE":"AFETR","ARG_OF_PERICENTER":"71.2629","RCS_SIZE":"LARGE","MEAN_ANOMALY":"288.8504","OBJECT_NAME":"STARLINK-1837","MEAN_MOTION_DDOT":"0.0000000000000","GP_ID":"232354719","ECCENTRICITY":"0.00013280","PERIAPSIS":"546.356","MEAN_MOTION":"15.06379810","CENTER_NAME":"EARTH","OBJECT_ID":"2020-088G","RA_OF_ASC_NODE":"188.8080","PERIOD":"95.593","SEMIMAJOR_AXIS":"6925.410","EPHEMERIS_TYPE":"0","REF_FRAME":"TEME","MEAN_MOTION_DOT":"0.00012124","COUNTRY_CODE":"US","CLASSIFICATION_TYPE":"U","OBJECT_TYPE":"PAYLOAD","MEAN_ELEMENT_THEORY":"SGP4","FILE":"3914964","REV_AT_EPOCH":"13810","EPOCH":"2023-05-22T20:32:51.766080","TIME_SYSTEM":"UTC","BSTAR":"0.00083184000000","NORAD_CAT_ID":"47128","INCLINATION":"53.0513","TLE_LINE1":"1 47128U 20088G   23142.85615470  .00012124  00000-0  83184-3 0  9995","TLE_LINE2":"2 47128  53.0513 188.8080 0001328  71.2629 288.8504 15.06379810138103","ELEMENT_SET_NO":"999","LAUNCH_DATE":"2020-11-25","APOAPSIS":"548.195","DECAY_DATE":null}];
